{"type": "FeatureCollection", "features": [ {"type": "Feature", "properties": {"norad_id": 30701, "name": "FENGYUN 1C DEB", "group": "fengyun-1c-debris", "lat": 4.550543754839099, "lon": -158.50046626467073, "alt_km": 832.3609965145843, "timestamp": "2025-12-05T07:38:19.123682+00:00", "meta": {"OBJECT_NAME": "FENGYUN 1C DEB", "OBJECT_ID": "1999-025ARK", "EPOCH": "2025-12-04T14:33:10.774080", "MEAN_MOTION": 14.13933693, "ECCENTRICITY": 0.003556, "INCLINATION": 98.7196, "RA_OF_ASC_NODE": 20.1053, "ARG_OF_PERICENTER": 125.3038, "MEAN_ANOMALY": 27.9881, "EPHEMERIS_TYPE": 0, "CLASSIFICATION_TYPE": "U", "NORAD_CAT_ID": 30701, "ELEMENT_SET_NO": 999, "REV_AT_EPOCH": 97004, "BSTAR": 3.5033e-05, "MEAN_MOTION_DOT": 2.4e-07, "MEAN_MOTION_DDOT": 0}, "tle": {"line1": "1 30701U 99025ARK 25338.60637470  .00000024  00000+0  35033-4 0  9993", "line2": "2 30701  98.7196  20.1053 0035560 125.3038  27.9881 14.13933693970042"}}, "geometry": {"type": "Point", "coordinates": [-158.50046626467073, 4.550543754839099]}}, {"type": "Feature", "properties": {"norad_id": 30702, "name": "FENGYUN 1C DEB", "group": "fengyun-1c-debris", "lat": 34.857472850018375, "lon": -6.750390252745341, "alt_km": 863.775436900718, "timestamp": "2025-12-05T07:38:19.123692+00:00", "meta": {"OBJECT_NAME": "FENGYUN 1C DEB", "OBJECT_ID": "1999-025ARL", "EPOCH": "2025-12-04T07:36:43.187328", "MEAN_MOTION": 14.03563213, "ECCENTRICITY": 0.0068452, "INCLINATION": 98.7705, "RA_OF_ASC_NODE": 358.4568, "ARG_OF_PERICENTER": 325.8009, "MEAN_ANOMALY": 53.2308, "EPHEMERIS_TYPE": 0, "CLASSIFICATION_TYPE": "U", "NORAD_CAT_ID": 30702, "ELEMENT_SET_NO": 999, "REV_AT_EPOCH": 96044, "BSTAR": 0.001146, "MEAN_MOTION_DOT": 1.792e-05, "MEAN_MOTION_DDOT": 0}, "tle": {"line1": "1 30702U 99025ARL 25338.31716652  .00001792  00000+0  11460-2 0  9991", "line2": "2 30702  98.7705 358.4568 0068452 325.8009  53.2308 14.03563213960443"}}, "geometry": {"type": "Point", "coordinates": [-6.750390252745341, 34.857472850018375]}}, {"type": "Feature", "properties": {"norad_id": 30703, "name": "FENGYUN 1C DEB", "group": "fengyun-1c-debris", "lat": 74.8038676454412, "lon": -72.2420210448341, "alt_km": 868.5111868908616, "timestamp": "2025-12-05T07:38:19.123702+00:00", "meta": {"OBJECT_NAME": "FENGYUN 1C DEB", "OBJECT_ID": "1999-025ARM", "EPOCH": "2025-12-03T21:43:46.657632", "MEAN_MOTION": 14.19246261, "ECCENTRICITY": 0.01182671, "INCLINATION": 99.1409, "RA_OF_ASC_NODE": 322.6545, "ARG_OF_PERICENTER": 317.152, "MEAN_ANOMALY": 104.7477, "EPHEMERIS_TYPE": 0, "CLASSIFICATION_TYPE": "U", "NORAD_CAT_ID": 30703, "ELEMENT_SET_NO": 999, "REV_AT_EPOCH": 96415, "BSTAR": 0.002570031, "MEAN_MOTION_DOT": 5.734e-05, "MEAN_MOTION_DDOT": 0}, "tle": {"line1": "1 30703U 99025ARM 25337.90540113  .00005734  00000+0  25700-2 0  9995", "line2": "2 30703  99.1409 322.6545 0118267 317.1520 104.7477 14.19246261964159"}}, "geometry": {"type": "Point", "coordinates": [-72.2420210448341, 74.8038676454412]}}, {"type": "Feature", "properties": {"norad_id": 30704, "name": "FENGYUN 1C DEB", "group": "fengyun-1c-debris", "lat": 58.82982331336199, "lon": 173.2204634207489, "alt_km": 821.6958884840642, "timestamp": "2025-12-05T07:38:19.123712+00:00", "meta": {"OBJECT_NAME": "FENGYUN 1C DEB", "OBJECT_ID": "1999-025ARN", "EPOCH": "2025-12-04T12:49:38.938080", "MEAN_MOTION": 14.02032589, "ECCENTRICITY": 0.0081656, "INCLINATION": 98.8707, "RA_OF_ASC_NODE": 337.4964, "ARG_OF_PERICENTER": 122.4922, "MEAN_ANOMALY": 3.5624, "EPHEMERIS_TYPE": 0, "CLASSIFICATION_TYPE": "U", "NORAD_CAT_ID": 30704, "ELEMENT_SET_NO": 999, "REV_AT_EPOCH": 95996, "BSTAR": 0.00060217, "MEAN_MOTION_DOT": 9.04e-06, "MEAN_MOTION_DDOT": 0}, "tle": {"line1": "1 30704U 99025ARN 25338.53447845  .00000904  00000+0  60217-3 0  9991", "line2": "2 30704  98.8707 337.4964 0081656 122.4922   3.5624 14.02032589959961"}}, "geometry": {"type": "Point", "coordinates": [173.2204634207489, 58.82982331336199]}}, {"type": "Feature", "properties": {"norad_id": 30705, "name": "FENGYUN 1C DEB", "group": "fengyun-1c-debris", "lat": 8.505684557590333, "lon": 79.50968581660491, "alt_km": 906.2817071681748, "timestamp": "2025-12-05T07:38:19.123722+00:00", "meta": {"OBJECT_NAME": "FENGYUN 1C DEB", "OBJECT_ID": "1999-025ARP", "EPOCH": "2025-12-04T12:33:04.793760", "MEAN_MOTION": 13.81255549, "ECCENTRICITY": 0.0198736, "INCLINATION": 102.181, "RA_OF_ASC_NODE": 80.3375, "ARG_OF_PERICENTER": 301.6661, "MEAN_ANOMALY": 72.242, "EPHEMERIS_TYPE": 0, "CLASSIFICATION_TYPE": "U", "NORAD_CAT_ID": 30705, "ELEMENT_SET_NO": 999, "REV_AT_EPOCH": 93896, "BSTAR": 0.0040212, "MEAN_MOTION_DOT": 4.891e-05, "MEAN_MOTION_DDOT": 0}, "tle": {"line1": "1 30705U 99025ARP 25338.52297215  .00004891  00000+0  40212-2 0  9996", "line2": "2 30705 102.1810  80.3375 0198736 301.6661  72.2420 13.81255549938968"}}, "geometry": {"type": "Point", "coordinates": [79.50968581660491, 8.505684557590333]}}, {"type": "Feature", "properties": {"norad_id": 30706, "name": "FENGYUN 1C DEB", "group": "fengyun-1c-debris", "lat": -3.6876030984747024, "lon": 53.075870991979244, "alt_km": 791.6085827840798, "timestamp": "2025-12-05T07:38:19.123732+00:00", "meta": {"OBJECT_NAME": "FENGYUN 1C DEB", "OBJECT_ID": "1999-025ARQ", "EPOCH": "2025-12-04T15:37:48.724032", "MEAN_MOTION": 14.2637481, "ECCENTRICITY": 0.0026068, "INCLINATION": 99.0659, "RA_OF_ASC_NODE": 232.9753, "ARG_OF_PERICENTER": 152.0159, "MEAN_ANOMALY": 208.2428, "EPHEMERIS_TYPE": 0, "CLASSIFICATION_TYPE": "U", "NORAD_CAT_ID": 30706, "ELEMENT_SET_NO": 999, "REV_AT_EPOCH": 97512, "BSTAR": 0.0017992, "MEAN_MOTION_DOT": 4.295e-05, "MEAN_MOTION_DDOT": 0}, "tle": {"line1": "1 30706U 99025ARQ 25338.65125838  .00004295  00000+0  17992-2 0  9999", "line2": "2 30706  99.0659 232.9753 0026068 152.0159 208.2428 14.26374810975128"}}, "geometry": {"type": "Point", "coordinates": [53.075870991979244, -3.6876030984747024]}}, {"type": "Feature", "properties": {"norad_id": 30707, "name": "FENGYUN 1C DEB", "group": "fengyun-1c-debris", "lat": 46.65927814477713, "lon": 23.01475751688375, "alt_km": 784.0824785633658, "timestamp": "2025-12-05T07:38:19.123742+00:00", "meta": {"OBJECT_NAME": "FENGYUN 1C DEB", "OBJECT_ID": "1999-025ARR", "EPOCH": "2025-12-04T03:03:30.738240", "MEAN_MOTION": 14.26591631, "ECCENTRICITY": 0.00284608, "INCLINATION": 99.4139, "RA_OF_ASC_NODE": 31.8606, "ARG_OF_PERICENTER": 94.4995, "MEAN_ANOMALY": 320.8277, "EPHEMERIS_TYPE": 0, "CLASSIFICATION_TYPE": "U", "NORAD_CAT_ID": 30707, "ELEMENT_SET_NO": 999, "REV_AT_EPOCH": 96680, "BSTAR": 0.0030736077, "MEAN_MOTION_DOT": 7.408e-05, "MEAN_MOTION_DDOT": 0}, "tle": {"line1": "1 30707U 99025ARR 25338.12743910  .00007408  00000+0  30736-2 0  9999", "line2": "2 30707  99.4139  31.8606 0028460  94.4995 320.8277 14.26591631966804"}}, "geometry": {"type": "Point", "coordinates": [23.01475751688375, 46.65927814477713]}}, {"type": "Feature", "properties": {"norad_id": 30708, "name": "FENGYUN 1C DEB", "group": "fengyun-1c-debris", "lat": 41.76107645529809, "lon": -178.9682649804941, "alt_km": 847.471526265681, "timestamp": "2025-12-05T07:38:19.123753+00:00", "meta": {"OBJECT_NAME": "FENGYUN 1C DEB", "OBJECT_ID": "1999-025ARS", "EPOCH": "2025-12-03T20:07:23.396736", "MEAN_MOTION": 14.12170532, "ECCENTRICITY": 0.00076439, "INCLINATION": 98.6908, "RA_OF_ASC_NODE": 351.7479, "ARG_OF_PERICENTER": 220.8461, "MEAN_ANOMALY": 317.9204, "EPHEMERIS_TYPE": 0, "CLASSIFICATION_TYPE": "U", "NORAD_CAT_ID": 30708, "ELEMENT_SET_NO": 999, "REV_AT_EPOCH": 96710, "BSTAR": 0.00021286021, "MEAN_MOTION_DOT": 3.48e-06, "MEAN_MOTION_DDOT": 0}, "tle": {"line1": "1 30708U 99025ARS 25337.83846524  .00000348  00000+0  21286-3 0  9999", "line2": "2 30708  98.6908 351.7479 0007643 220.8461 317.9204 14.12170532967104"}}, "geometry": {"type": "Point", "coordinates": [-178.9682649804941, 41.76107645529809]}}, {"type": "Feature", "properties": {"norad_id": 30709, "name": "FENGYUN 1C DEB", "group": "fengyun-1c-debris", "lat": 25.86279394110986, "lon": -47.41587417852868, "alt_km": 838.2003350152818, "timestamp": "2025-12-05T07:38:19.123763+00:00", "meta": {"OBJECT_NAME": "FENGYUN 1C DEB", "OBJECT_ID": "1999-025ART", "EPOCH": "2025-12-04T14:34:23.577312", "MEAN_MOTION": 14.17336316, "ECCENTRICITY": 0.0083378, "INCLINATION": 99.1431, "RA_OF_ASC_NODE": 316.3307, "ARG_OF_PERICENTER": 293.2479, "MEAN_ANOMALY": 65.9932, "EPHEMERIS_TYPE": 0, "CLASSIFICATION_TYPE": "U", "NORAD_CAT_ID": 30709, "ELEMENT_SET_NO": 999, "REV_AT_EPOCH": 95881, "BSTAR": 0.0061865, "MEAN_MOTION_DOT": 0.00012921, "MEAN_MOTION_DDOT": 0}, "tle": {"line1": "1 30709U 99025ART 25338.60721733  .00012921  00000+0  61865-2 0  9996", "line2": "2 30709  99.1431 316.3307 0083378 293.2479  65.9932 14.17336316958816"}}, "geometry": {"type": "Point", "coordinates": [-47.41587417852868, 25.86279394110986]}}, {"type": "Feature", "properties": {"norad_id": 30710, "name": "FENGYUN 1C DEB", "group": "fengyun-1c-debris", "lat": 17.894606824278586, "lon": 49.9275990015037, "alt_km": 832.125871895325, "timestamp": "2025-12-05T07:38:19.123773+00:00", "meta": {"OBJECT_NAME": "FENGYUN 1C DEB", "OBJECT_ID": "1999-025ARU", "EPOCH": "2025-12-04T11:03:50.889888", "MEAN_MOTION": 13.94066259, "ECCENTRICITY": 0.0222726, "INCLINATION": 102.7466, "RA_OF_ASC_NODE": 224.5575, "ARG_OF_PERICENTER": 102.9253, "MEAN_ANOMALY": 76.0711, "EPHEMERIS_TYPE": 0, "CLASSIFICATION_TYPE": "U", "NORAD_CAT_ID": 30710, "ELEMENT_SET_NO": 999, "REV_AT_EPOCH": 94673, "BSTAR": 0.0042718, "MEAN_MOTION_DOT": 6.883e-05, "MEAN_MOTION_DDOT": 0}, "tle": {"line1": "1 30710U 99025ARU 25338.46100567  .00006883  00000+0  42718-2 0  9994", "line2": "2 30710 102.7466 224.5575 0222726 102.9253  76.0711 13.94066259946738"}}, "geometry": {"type": "Point", "coordinates": [49.9275990015037, 17.894606824278586]}}]}